[{"OBJECT_NAME":"STARLINK-3339","OBJECT_ID":"2022-001T","EPOCH":"2026-03-09T13:14:39.663744","MEAN_MOTION":15.08839787,"ECCENTRICITY":0.00012607,"INCLINATION":53.2178,"RA_OF_ASC_NODE":169.7391,"ARG_OF_PERICENTER":106.5177,"MEAN_ANOMALY":253.5954,"EPHEMERIS_TYPE":0,"CLASSIFICATION_TYPE":"U","NORAD_CAT_ID":50820,"ELEMENT_SET_NO":999,"REV_AT_EPOCH":23038,"BSTAR":-3.018521e-6,"MEAN_MOTION_DOT":-3.36e-6,"MEAN_MOTION_DDOT":0},{"OBJECT_NAME":"THORAD DELTA 1 DEB","OBJECT_ID":"1974-089BJ","EPOCH":"2026-03-09T17:26:50.938944","MEAN_MOTION":14.89612235,"ECCENTRICITY":0.00930761,"INCLINATION":102.9252,"RA_OF_ASC_NODE":157.5149,"ARG_OF_PERICENTER":255.4838,"MEAN_ANOMALY":103.6021,"EPHEMERIS_TYPE":0,"CLASSIFICATION_TYPE":"U","NORAD_CAT_ID":8301,"ELEMENT_SET_NO":999,"REV_AT_EPOCH":53411,"BSTAR":0.014617981,"MEAN_MOTION_DOT":0.00154551,"MEAN_MOTION_DDOT":0}]
